0 IRIDIUM 33 DEB
1 38019U 97051YF  13281.38874022  .00005445  00000-0  23968-2 0  2768
2 38019 086.4150 160.7263 0118496 146.9895 335.1507 14.19601204188169
0 IRIDIUM 33 DEB
1 38019U 97051YF  13284.41988546  .00008364  00000-0  36810-2 0  2776
2 38019 086.4145 159.4947 0118735 137.5706 346.0257 14.19642905188593
0 IRIDIUM 33 DEB
1 38019U 97051YF  13285.40684147  .00006878  00000-0  30248-2 0  2784
2 38019 086.4154 159.0952 0118898 134.3328 350.1914 14.19655151188739
0 IRIDIUM 33 DEB
1 38019U 97051YF  13287.38044293  .00007463  00000-0  32801-2 0  2794
2 38019 086.4150 158.2940 0119084 128.1296 356.7975 14.19678273189017
0 IRIDIUM 33 DEB
1 38019U 97051YF  13289.42347345  .00009108  00000-0  40006-2 0  2801
2 38019 086.4155 157.4635 0119250 121.9322 358.2414 14.19713935189302
0 IRIDIUM 33 DEB
1 38019U 97051YF  13290.41120492  .00009446  00000-0  41467-2 0  2812
2 38019 086.4146 157.0632 0119558 118.1095 007.1930 14.19726579189447
0 IRIDIUM 33 DEB
1 38019U 97051YF  13291.39802281  .00008550  00000-0  37516-2 0  2829
2 38019 086.4142 156.6623 0119582 115.1069 010.7295 14.19741498189589
0 IRIDIUM 33 DEB
1 38019U 97051YF  13293.37132064  .00008365  00000-0  36692-2 0  2833
2 38019 086.4135 155.8608 0119389 109.3561 015.9740 14.19768556189869
0 IRIDIUM 33 DEB
1 38019U 97051YF  13294.90940081  .00008651  00000-0  37929-2 0  2842
2 38019 086.4132 155.2361 0119497 104.5143 317.3702 14.19789030190082
